TOMORROW-S1             
1 60479U 24149M   26155.66609080  .00008465  00000+0  27191-3 0  9995
2 60479  97.3748 236.1799 0001027 309.1986  50.9165 15.32536144100178
FLOCK 4BE-18            
1 60480U 24149N   26155.74843267  .00018498  00000+0  44367-3 0  9994
2 60480  97.3724 239.3526 0002343 306.6206  53.4825 15.41438467100390
FLOCK 4BE-7             
1 60481U 24149P   26155.74308269  .00023684  00000+0  59863-3 0  9993
2 60481  97.3757 238.7107 0001478 311.2455  48.8664 15.39794674100336
FLOCK 4BE-25            
1 60487U 24149V   26156.51198786  .00014592  00000+0  38571-3 0  9997
2 60487  97.3795 239.5862 0000768 324.4553  35.6641 15.38522662100443
FLOCK 4BE-31            
1 60488U 24149W   26156.02786536  .00024043  00000+0  53562-3 0  9999
2 60488  97.3799 241.1385 0001357 342.0063  18.1137 15.43602536100502
FLOCK 4BE-20            
1 60489U 24149X   26156.46952177  .00013669  00000+0  37071-3 0  9993
2 60489  97.3691 238.4527 0002303 320.4590  39.6487 15.37741025100414
FLOCK 4BE-23            
1 60490U 24149Y   26155.67581084  .00014293  00000+0  39241-3 0  9997
2 60490  97.3778 238.0253 0002152 338.3167  21.7986 15.37350850100276
FLOCK 4BE-15            
1 60491U 24149Z   26156.01753000  .00107777  00000+0  14431-2 0  9999
2 60491  97.3666 240.9605 0001156 232.4545 127.6605 15.57632386100535
FLOCK 4BE-17            
1 60492U 24149AA  26156.45695662  .00015502  00000+0  39757-3 0  9990
2 60492  97.3772 239.7372 0001566 310.5160  49.5949 15.39437288100455
NUSAT-50 (NANCY ROMAN)  
1 60493U 24149AB  26156.45965307  .00008364  00000+0  29379-3 0  9994
2 60493  97.3783 237.7996 0002321 217.5572 142.5506 15.29642847100339
FLOCK 4BE-22            
1 60494U 24149AC  26155.73454743  .00017902  00000+0  43895-3 0  9999
2 60494  97.3733 239.1814 0002463 330.2167  29.8939 15.40776109100384
FLOCK 4BE-34            
1 60495U 24149AD  26156.46609188  .00015526  00000+0  38065-3 0  9999
2 60495  97.3777 240.7345 0002304 342.0746  18.0419 15.40811527100521
TYCHE                   
1 60496U 24149AE  26156.52874229  .00004862  00000+0  19257-3 0  9990
2 60496  97.3751 234.5006 0001198 356.6154   3.5076 15.25889029100122
FLOCK 4BE-32            
1 60497U 24149AF  26156.50697720  .00018897  00000+0  44851-3 0  9999
2 60497  97.3716 240.3113 0002315 328.6907  31.4201 15.41750574100530
NUSAT-48 (HENRIETTA LE*)
1 60498U 24149AG  26155.66442328  .00010298  00000+0  35425-3 0  9992
2 60498  97.3901 237.2285 0003022 339.0073  21.1043 15.30257586100227
FLOCK 4BE-30            
1 60499U 24149AH  26155.70853529  .00124070  00000+0  19359-2 0  9998
2 60499  97.3767 240.8362 0002040 228.5176 131.5903 15.53392956 99830
NUSAT-49 (KLARA DAN VO*)
1 60500U 24149AJ  26156.49284882  .00009392  00000+0  32290-3 0  9997
2 60500  97.3775 237.8627 0002066  29.5602 330.5755 15.30302300100347
FLOCK 4BE-11            
1 60501U 24149AK  26156.50783226  .00018197  00000+0  42024-3 0  9995
2 60501  97.3703 240.5323 0002262 327.6796  32.4312 15.42582285100552
YAM-7                   
1 60504U 24149AN  26156.49434205  .00007945  00000+0  26244-3 0  9991
2 60504  97.3780 236.7931 0002866   4.8644 355.2625 15.31652531100269
FLOCK 4BE-24            
1 60505U 24149AP  26156.49491200  .00020466  00000+0  47161-3 0  9994
2 60505  97.3713 240.7705 0002723 337.3231  22.7896 15.42622258100562
TANAGER-1               
1 60507U 24149AR  26156.50075770  .00002768  00000+0  60831-4 0  9993
2 60507  97.2820 250.7448 0003667 351.4725   8.6461 15.44887554101230
EAGLEEYE                
1 60508U 24149AS  26155.73992632  .00089293  00000+0  78049-3 0  9990
2 60508  97.3727 248.4123 0002784 275.5963  84.4981 15.68651125100980
FLOCK 4BE-29            
1 60509U 24149AT  26155.73618501  .00020095  00000+0  44644-3 0  9990
2 60509  97.3808 241.4255 0002118  12.4526 347.6774 15.43719625100497
FLOCK 4BE-2             
1 60511U 24149AV  26156.51874205  .00055866  00000+0  94398-3 0  9990
2 60511  97.3830 243.4920 0002241 314.8993  45.2077 15.51431548100693
FLOCK 4BE-13            
1 60512U 24149AW  26156.53806963  .00014836  00000+0  35493-3 0  9992
2 60512  97.3716 240.8312 0002840 322.9578  37.1473 15.41563070100579
