OBJECT_NAME,OBJECT_ID,EPOCH,MEAN_MOTION,ECCENTRICITY,INCLINATION,RA_OF_ASC_NODE,ARG_OF_PERICENTER,MEAN_ANOMALY,EPHEMERIS_TYPE,CLASSIFICATION_TYPE,NORAD_CAT_ID,ELEMENT_SET_NO,REV_AT_EPOCH,BSTAR,MEAN_MOTION_DOT,MEAN_MOTION_DDOT
TOMORROW-S1,2024-149M,2026-06-04T15:59:10.245120,15.32536144,.0001027,97.3748,236.1799,309.1986,50.9165,0,U,60479,999,10017,.27190577E-3,.8465E-4,0
FLOCK 4BE-18,2024-149N,2026-06-04T17:57:44.582688,15.41438467,.00023435,97.3724,239.3526,306.6206,53.4825,0,U,60480,999,10039,.44367395E-3,.18498E-3,0
FLOCK 4BE-7,2024-149P,2026-06-04T17:50:02.344416,15.39794674,.0001478,97.3757,238.7107,311.2455,48.8664,0,U,60481,999,10033,.59863E-3,.23684E-3,0
FLOCK 4BE-25,2024-149V,2026-06-05T12:17:15.751104,15.38522662,.0000768,97.3795,239.5862,324.4553,35.6641,0,U,60487,999,10044,.38571E-3,.14592E-3,0
FLOCK 4BE-31,2024-149W,2026-06-05T00:40:07.567104,15.43602536,.00013577,97.3799,241.1385,342.0063,18.1137,0,U,60488,999,10050,.53562129E-3,.24043E-3,0
FLOCK 4BE-20,2024-149X,2026-06-05T11:16:06.680928,15.37741025,.0002303,97.3691,238.4527,320.4590,39.6487,0,U,60489,999,10041,.37071E-3,.13669E-3,0
FLOCK 4BE-23,2024-149Y,2026-06-04T16:13:10.056576,15.37350850,.0002152,97.3778,238.0253,338.3167,21.7986,0,U,60490,999,10027,.39241E-3,.14293E-3,0
FLOCK 4BE-15,2024-149Z,2026-06-05T00:25:14.592000,15.57632386,.00011566,97.3666,240.9605,232.4545,127.6605,0,U,60491,999,10053,.14431073E-2,.107777E-2,0
FLOCK 4BE-17,2024-149AA,2026-06-05T10:58:01.051968,15.39437288,.0001566,97.3772,239.7372,310.5160,49.5949,0,U,60492,999,10045,.39757E-3,.15502E-3,0
NUSAT-50 (NANCY ROMAN),2024-149AB,2026-06-05T11:01:54.025248,15.29642847,.0002321,97.3783,237.7996,217.5572,142.5506,0,U,60493,999,10033,.29379E-3,.8364E-4,0
FLOCK 4BE-22,2024-149AC,2026-06-04T17:37:44.897952,15.40776109,.0002463,97.3733,239.1814,330.2167,29.8939,0,U,60494,999,10038,.43895E-3,.17902E-3,0
FLOCK 4BE-34,2024-149AD,2026-06-05T11:11:10.338432,15.40811527,.0002304,97.3777,240.7345,342.0746,18.0419,0,U,60495,999,10052,.38065E-3,.15526E-3,0
TYCHE,2024-149AE,2026-06-05T12:41:23.333856,15.25889029,.0001198,97.3751,234.5006,356.6154,3.5076,0,U,60496,999,10012,.19257E-3,.4862E-4,0
FLOCK 4BE-32,2024-149AF,2026-06-05T12:10:02.830080,15.41750574,.0002315,97.3716,240.3113,328.6907,31.4201,0,U,60497,999,10053,.44851E-3,.18897E-3,0
NUSAT-48 (HENRIETTA LEAVITT),2024-149AG,2026-06-04T15:56:46.171392,15.30257586,.00030229,97.3901,237.2285,339.0073,21.1043,0,U,60498,999,10022,.35425347E-3,.10298E-3,0
FLOCK 4BE-30,2024-149AH,2026-06-04T17:00:17.449056,15.53392956,.000204,97.3767,240.8362,228.5176,131.5903,0,U,60499,999,9983,.19359E-2,.12407E-2,0
NUSAT-49 (KLARA DAN VON NEUMANN),2024-149AJ,2026-06-05T11:49:42.138048,15.30302300,.0002066,97.3775,237.8627,29.5602,330.5755,0,U,60500,999,10034,.3229E-3,.9392E-4,0
FLOCK 4BE-11,2024-149AK,2026-06-05T12:11:16.707264,15.42582285,.0002262,97.3703,240.5323,327.6796,32.4312,0,U,60501,999,10055,.42024E-3,.18197E-3,0
YAM-7,2024-149AN,2026-06-05T11:51:51.153120,15.31652531,.0002866,97.3780,236.7931,4.8644,355.2625,0,U,60504,999,10026,.26244E-3,.7945E-4,0
FLOCK 4BE-24,2024-149AP,2026-06-05T11:52:40.396800,15.42622258,.0002723,97.3713,240.7705,337.3231,22.7896,0,U,60505,999,10056,.47161E-3,.20466E-3,0
TANAGER-1,2024-149AR,2026-06-05T12:01:05.465280,15.44887554,.0003667,97.2820,250.7448,351.4725,8.6461,0,U,60507,999,10123,.60831E-4,.2768E-4,0
EAGLEEYE,2024-149AS,2026-06-04T17:45:29.634048,15.68651125,.0002784,97.3727,248.4123,275.5963,84.4981,0,U,60508,999,10098,.78049E-3,.89293E-3,0
FLOCK 4BE-29,2024-149AT,2026-06-04T17:40:06.384864,15.43719625,.0002118,97.3808,241.4255,12.4526,347.6774,0,U,60509,999,10049,.44644E-3,.20095E-3,0
FLOCK 4BE-2,2024-149AV,2026-06-05T12:26:59.313120,15.51431548,.0002241,97.3830,243.4920,314.8993,45.2077,0,U,60511,999,10069,.94398E-3,.55866E-3,0
FLOCK 4BE-13,2024-149AW,2026-06-05T12:54:49.216032,15.41563070,.000284,97.3716,240.8312,322.9578,37.1473,0,U,60512,999,10057,.35493E-3,.14836E-3,0
